[
  {
    "CCSDS_OMM_VERS": "3.0",
    "COMMENT": "GENERATED VIA SPACE-TRACK.ORG API",
    "CREATION_DATE": "2024-03-08T22:36:31",
    "ORIGINATOR": "18 SPCS",
    "OBJECT_NAME": "FORMOSAT 3F DEB",
    "OBJECT_ID": "2006-011J",
    "CENTER_NAME": "EARTH",
    "REF_FRAME": "TEME",
    "TIME_SYSTEM": "UTC",
    "MEAN_ELEMENT_THEORY": "SGP4",
    "EPOCH": "2024-03-04T23:28:58.296000",
    "MEAN_MOTION": "14.99989537",
    "ECCENTRICITY": "0.00395540",
    "INCLINATION": "72.0260",
    "RA_OF_ASC_NODE": "283.3678",
    "ARG_OF_PERICENTER": "98.4089",
    "MEAN_ANOMALY": "262.1572",
    "EPHEMERIS_TYPE": "0",
    "CLASSIFICATION_TYPE": "U",
    "NORAD_CAT_ID": "59177",
    "ELEMENT_SET_NO": "999",
    "REV_AT_EPOCH": "175",
    "BSTAR": "0.35315000000000",
    "MEAN_MOTION_DOT": "0.05128110",
    "MEAN_MOTION_DDOT": "0.0000000000000",
    "SEMIMAJOR_AXIS": "6945.066",
    "PERIOD": "96.001",
    "APOAPSIS": "594.401",
    "PERIAPSIS": "539.460",
    "OBJECT_TYPE": "DEBRIS",
    "RCS_SIZE": null,
    "COUNTRY_CODE": null,
    "LAUNCH_DATE": null,
    "SITE": null,
    "DECAY_DATE": null,
    "FILE": "4214972",
    "GP_ID": "251130380",
    "TLE_LINE0": "0 FORMOSAT 3F DEB",
    "TLE_LINE1": "1 59177U 06011J   24064.97845250  .05128110  00000-0  35315+0 0  9997",
    "TLE_LINE2": "2 59177  72.0260 283.3678 0039554  98.4089 262.1572 14.99989537  1751"
  },
  {
    "CCSDS_OMM_VERS": "3.0",
    "COMMENT": "GENERATED VIA SPACE-TRACK.ORG API",
    "CREATION_DATE": "2024-03-08T22:46:16",
    "ORIGINATOR": "18 SPCS",
    "OBJECT_NAME": "FORMOSAT 3F DEB",
    "OBJECT_ID": "2006-011H",
    "CENTER_NAME": "EARTH",
    "REF_FRAME": "TEME",
    "TIME_SYSTEM": "UTC",
    "MEAN_ELEMENT_THEORY": "SGP4",
    "EPOCH": "2024-03-06T01:13:42.683808",
    "MEAN_MOTION": "14.34439597",
    "ECCENTRICITY": "0.00791210",
    "INCLINATION": "72.0153",
    "RA_OF_ASC_NODE": "284.1017",
    "ARG_OF_PERICENTER": "115.8014",
    "MEAN_ANOMALY": "53.6805",
    "EPHEMERIS_TYPE": "0",
    "CLASSIFICATION_TYPE": "U",
    "NORAD_CAT_ID": "59176",
    "ELEMENT_SET_NO": "999",
    "REV_AT_EPOCH": "412",
    "BSTAR": "20.29900000000000",
    "MEAN_MOTION_DOT": "0.77766225",
    "MEAN_MOTION_DDOT": "0.0000000000000",
    "SEMIMAJOR_AXIS": "7155.066",
    "PERIOD": "100.388",
    "APOAPSIS": "833.543",
    "PERIAPSIS": "720.320",
    "OBJECT_TYPE": "DEBRIS",
    "RCS_SIZE": null,
    "COUNTRY_CODE": null,
    "LAUNCH_DATE": null,
    "SITE": null,
    "DECAY_DATE": null,
    "FILE": "4215107",
    "GP_ID": "251131414",
    "TLE_LINE0": "0 FORMOSAT 3F DEB",
    "TLE_LINE1": "1 59176U 06011H   24066.05118847  .77766225  00000-0  20299+2 0  9993",
    "TLE_LINE2": "2 59176  72.0153 284.1017 0079121 115.8014  53.6805 14.34439597  4124"
  },
  {
    "CCSDS_OMM_VERS": "3.0",
    "COMMENT": "GENERATED VIA SPACE-TRACK.ORG API",
    "CREATION_DATE": "2024-02-27T22:46:17",
    "ORIGINATOR": "18 SPCS",
    "OBJECT_NAME": "COSMOS 2428 DEB",
    "OBJECT_ID": "2007-029V",
    "CENTER_NAME": "EARTH",
    "REF_FRAME": "TEME",
    "TIME_SYSTEM": "UTC",
    "MEAN_ELEMENT_THEORY": "SGP4",
    "EPOCH": "2024-01-26T10:21:59.949504",
    "MEAN_MOTION": "14.90190766",
    "ECCENTRICITY": "0.00893880",
    "INCLINATION": "70.9061",
    "RA_OF_ASC_NODE": "26.1090",
    "ARG_OF_PERICENTER": "356.9056",
    "MEAN_ANOMALY": "3.1539",
    "EPHEMERIS_TYPE": "0",
    "CLASSIFICATION_TYPE": "U",
    "NORAD_CAT_ID": "59049",
    "ELEMENT_SET_NO": "999",
    "REV_AT_EPOCH": "60",
    "BSTAR": "0.00000000000000",
    "MEAN_MOTION_DOT": "-0.00000086",
    "MEAN_MOTION_DDOT": "0.0000000000000",
    "SEMIMAJOR_AXIS": "6975.477",
    "PERIOD": "96.632",
    "APOAPSIS": "659.695",
    "PERIAPSIS": "534.990",
    "OBJECT_TYPE": "DEBRIS",
    "RCS_SIZE": null,
    "COUNTRY_CODE": null,
    "LAUNCH_DATE": null,
    "SITE": null,
    "DECAY_DATE": null,
    "FILE": "4200374",
    "GP_ID": "250276463",
    "TLE_LINE0": "0 COSMOS 2428 DEB",
    "TLE_LINE1": "1 59049U 07029V   24026.43194386 -.00000086  00000-0  00000+0 0  9991",
    "TLE_LINE2": "2 59049  70.9061  26.1090 0089388 356.9056   3.1539 14.90190766   600"
  },
  {
    "CCSDS_OMM_VERS": "3.0",
    "COMMENT": "GENERATED VIA SPACE-TRACK.ORG API",
    "CREATION_DATE": "2024-02-27T22:46:17",
    "ORIGINATOR": "18 SPCS",
    "OBJECT_NAME": "COSMOS 2428 DEB",
    "OBJECT_ID": "2007-029U",
    "CENTER_NAME": "EARTH",
    "REF_FRAME": "TEME",
    "TIME_SYSTEM": "UTC",
    "MEAN_ELEMENT_THEORY": "SGP4",
    "EPOCH": "2024-02-26T18:13:23.162304",
    "MEAN_MOTION": "14.87380621",
    "ECCENTRICITY": "0.00829260",
    "INCLINATION": "70.7903",
    "RA_OF_ASC_NODE": "318.1936",
    "ARG_OF_PERICENTER": "83.9234",
    "MEAN_ANOMALY": "277.1366",
    "EPHEMERIS_TYPE": "0",
    "CLASSIFICATION_TYPE": "U",
    "NORAD_CAT_ID": "59048",
    "ELEMENT_SET_NO": "999",
    "REV_AT_EPOCH": "520",
    "BSTAR": "0.59358000000000",
    "MEAN_MOTION_DOT": "0.06460964",
    "MEAN_MOTION_DDOT": "0.0000000000000",
    "SEMIMAJOR_AXIS": "6984.260",
    "PERIOD": "96.814",
    "APOAPSIS": "664.043",
    "PERIAPSIS": "548.208",
    "OBJECT_TYPE": "DEBRIS",
    "RCS_SIZE": null,
    "COUNTRY_CODE": null,
    "LAUNCH_DATE": null,
    "SITE": null,
    "DECAY_DATE": "2024-03-05",
    "FILE": "4200373",
    "GP_ID": "250276989",
    "TLE_LINE0": "0 COSMOS 2428 DEB",
    "TLE_LINE1": "1 59048U 07029U   24057.75929586  .06460964  00000-0  59358+0 0  9997",
    "TLE_LINE2": "2 59048  70.7903 318.1936 0082926  83.9234 277.1366 14.87380621  5200"
  },
  {
    "CCSDS_OMM_VERS": "3.0",
    "COMMENT": "GENERATED VIA SPACE-TRACK.ORG API",
    "CREATION_DATE": "2024-03-10T14:46:17",
    "ORIGINATOR": "18 SPCS",
    "OBJECT_NAME": "COSMOS 2428 DEB",
    "OBJECT_ID": "2007-029T",
    "CENTER_NAME": "EARTH",
    "REF_FRAME": "TEME",
    "TIME_SYSTEM": "UTC",
    "MEAN_ELEMENT_THEORY": "SGP4",
    "EPOCH": "2024-03-10T08:27:13.010688",
    "MEAN_MOTION": "14.23101980",
    "ECCENTRICITY": "0.00403620",
    "INCLINATION": "70.9342",
    "RA_OF_ASC_NODE": "292.9614",
    "ARG_OF_PERICENTER": "55.0593",
    "MEAN_ANOMALY": "305.4314",
    "EPHEMERIS_TYPE": "0",
    "CLASSIFICATION_TYPE": "U",
    "NORAD_CAT_ID": "59047",
    "ELEMENT_SET_NO": "999",
    "REV_AT_EPOCH": "681",
    "BSTAR": "0.02643500000000",
    "MEAN_MOTION_DOT": "0.00060659",
    "MEAN_MOTION_DDOT": "0.0000000000000",
    "SEMIMAJOR_AXIS": "7193.018",
    "PERIOD": "101.187",
    "APOAPSIS": "843.916",
    "PERIAPSIS": "785.851",
    "OBJECT_TYPE": "DEBRIS",
    "RCS_SIZE": "SMALL",
    "COUNTRY_CODE": "CIS",
    "LAUNCH_DATE": "2007-06-29",
    "SITE": "TTMTR",
    "DECAY_DATE": null,
    "FILE": "4218055",
    "GP_ID": "251291370",
    "TLE_LINE0": "0 COSMOS 2428 DEB",
    "TLE_LINE1": "1 59047U 07029T   24070.35223392  .00060659  00000-0  26435-1 0  9992",
    "TLE_LINE2": "2 59047  70.9342 292.9614 0040362  55.0593 305.4314 14.23101980  6811"
  },
  {
    "CCSDS_OMM_VERS": "3.0",
    "COMMENT": "GENERATED VIA SPACE-TRACK.ORG API",
    "CREATION_DATE": "2024-03-05T22:46:31",
    "ORIGINATOR": "18 SPCS",
    "OBJECT_NAME": "COSMOS 2574 DEB",
    "OBJECT_ID": "2023-209C",
    "CENTER_NAME": "EARTH",
    "REF_FRAME": "TEME",
    "TIME_SYSTEM": "UTC",
    "MEAN_ELEMENT_THEORY": "SGP4",
    "EPOCH": "2024-03-04T23:29:41.828640",
    "MEAN_MOTION": "16.31106792",
    "ECCENTRICITY": "0.00131170",
    "INCLINATION": "96.7752",
    "RA_OF_ASC_NODE": "322.4893",
    "ARG_OF_PERICENTER": "177.0452",
    "MEAN_ANOMALY": "183.0925",
    "EPHEMERIS_TYPE": "0",
    "CLASSIFICATION_TYPE": "U",
    "NORAD_CAT_ID": "59022",
    "ELEMENT_SET_NO": "999",
    "REV_AT_EPOCH": "176",
    "BSTAR": "0.00312180000000",
    "MEAN_MOTION_DOT": "0.15410336",
    "MEAN_MOTION_DDOT": "0.0000021481000",
    "SEMIMAJOR_AXIS": "6567.704",
    "PERIOD": "88.284",
    "APOAPSIS": "198.184",
    "PERIAPSIS": "180.954",
    "OBJECT_TYPE": "DEBRIS",
    "RCS_SIZE": "MEDIUM",
    "COUNTRY_CODE": "CIS",
    "LAUNCH_DATE": "2023-12-27",
    "SITE": "PKMTR",
    "DECAY_DATE": null,
    "FILE": "4209532",
    "GP_ID": "250888096",
    "TLE_LINE0": "0 COSMOS 2574 DEB",
    "TLE_LINE1": "1 59022U 23209C   24064.97895635  .15410336  21481-5  31218-2 0  9993",
    "TLE_LINE2": "2 59022  96.7752 322.4893 0013117 177.0452 183.0925 16.31106792  1764"
  },
  {
    "CCSDS_OMM_VERS": "3.0",
    "COMMENT": "GENERATED VIA SPACE-TRACK.ORG API",
    "CREATION_DATE": "2024-02-26T09:56:21",
    "ORIGINATOR": "18 SPCS",
    "OBJECT_NAME": "AXIOM-3 DEB",
    "OBJECT_ID": "2024-014B",
    "CENTER_NAME": "EARTH",
    "REF_FRAME": "TEME",
    "TIME_SYSTEM": "UTC",
    "MEAN_ELEMENT_THEORY": "SGP4",
    "EPOCH": "2024-02-26T08:24:04.808160",
    "MEAN_MOTION": "16.45820785",
    "ECCENTRICITY": "0.00143030",
    "INCLINATION": "51.2628",
    "RA_OF_ASC_NODE": "141.4946",
    "ARG_OF_PERICENTER": "118.6342",
    "MEAN_ANOMALY": "322.4844",
    "EPHEMERIS_TYPE": "0",
    "CLASSIFICATION_TYPE": "U",
    "NORAD_CAT_ID": "58953",
    "ELEMENT_SET_NO": "999",
    "REV_AT_EPOCH": "269",
    "BSTAR": "0.00049283000000",
    "MEAN_MOTION_DOT": "0.24619100",
    "MEAN_MOTION_DDOT": "0.0000124310000",
    "SEMIMAJOR_AXIS": "6528.501",
    "PERIOD": "87.494",
    "APOAPSIS": "159.704",
    "PERIAPSIS": "141.028",
    "OBJECT_TYPE": "DEBRIS",
    "RCS_SIZE": "LARGE",
    "COUNTRY_CODE": "US",
    "LAUNCH_DATE": "2024-01-18",
    "SITE": "AFETR",
    "DECAY_DATE": "2024-02-26",
    "FILE": "4198956",
    "GP_ID": "250159168",
    "TLE_LINE0": "0 AXIOM-3 DEB",
    "TLE_LINE1": "1 58953U 24014B   24057.35005565  .24619100  12431-4  49283-3 0  9995",
    "TLE_LINE2": "2 58953  51.2628 141.4946 0014303 118.6342 322.4844 16.45820785  2691"
  }
]